*******************************************************************************
 Revised: Jun 17, 2016             Io  / (Jupiter)                          501

 SATELLITE PHYSICAL PROPERTIES:
  Radius (km)             = 1821.3 +- 0.2   Density (g cm^-3)   =  3.530 +-.006
  Mass (10^20 kg )        =  893.3 +- 1.5   Geometric Albedo    =  0.6  

 SATELLITE ORBITAL DATA:
  Semi-major axis, a (km) = 421.769 (10^3)  Orbital period      = 1.769138 d
  Eccentricity, e         = 0.0041          Rotational period   = Synchronous
  Inclination, i  (deg)   = 0.036
*******************************************************************************
 
 
*******************************************************************************
Ephemeris / WWW_USER Tue Jul 25 07:33:20 2017 Pasadena, USA      / Horizons    
*******************************************************************************
Target body name: Io (501)                        {source: jup310}
Center body name: Sun (10)                        {source: DE431mx}
Center-site name: BODY CENTER
*******************************************************************************
Start time      : A.D. 2017-Jul-10 00:00:00.0000 TDB
Stop  time      : A.D. 2020-Aug-13 00:00:00.0000 TDB
Step-size       : 1440 minutes
*******************************************************************************
Center geodetic : 0.00000000,0.00000000,0.0000000 {E-lon(deg),Lat(deg),Alt(km)}
Center cylindric: 0.00000000,0.00000000,0.0000000 {E-lon(deg),Dxy(km),Dz(km)}
Center radii    : 696000.0 x 696000.0 x 696000.0 k{Equator, meridian, pole}    
Output units    : KM-S                                                         
Output type     : GEOMETRIC cartesian states
Output format   : 3 (position, velocity, LT, range, range-rate)
Reference frame : ICRF/J2000.0                                                 
Coordinate systm: Ecliptic and Mean Equinox of Reference Epoch                 
*******************************************************************************
            JDTDB,            Calendar Date (TDB),                      X,                      Y,                      Z,                     VX,                     VY,                     VZ,                     LT,                     RG,                     RR,
**************************************************************************************************************************************************************************************************************************************************************************
$$SOE
2458673.500000000, A.D. 2019-Jul-09 00:00:00.0000, -1.175601291810020E+08, -7.823887911429735E+08,  5.875628559777677E+06,  3.852070282742725E+00, -1.624283852672834E+01, -9.530219980700529E-01,  2.639137382727173E+03,  7.911934829674659E+08,  1.548264183166651E+01,
2458674.500000000, A.D. 2019-Jul-10 00:00:00.0000, -1.156757346134803E+08, -7.827719355800413E+08,  5.852786611460447E+06,  1.495940238756838E+01,  1.581246265911360E+01,  3.749748341401657E-01,  2.639474440639611E+03,  7.912945303875239E+08, -1.782622863312997E+01,
2458675.500000000, A.D. 2019-Jul-11 00:00:00.0000, -1.153944542757768E+08, -7.829483669023553E+08,  5.814337235469699E+06,  1.766900541769964E+01, -1.797687953029126E+01, -8.190973219277664E-01,  2.639918704610896E+03,  7.914277173754767E+08,  1.520202093036422E+01,
2458676.500000000, A.D. 2019-Jul-12 00:00:00.0000, -1.135600092220980E+08, -7.826721465646540E+08,  5.814680153485954E+06,  1.779754013300289E+00,  1.206255585001972E+01,  4.685918063681793E-02,  2.638121662825554E+03,  7.908889778015203E+08, -1.219243555272646E+01,
2458677.500000000, A.D. 2019-Jul-13 00:00:00.0000, -1.129691610109051E+08, -7.834256465943500E+08,  5.759495359750509E+06,  2.831116986329275E+01, -9.016975034859776E+00, -3.407864409901347E-01,  2.640325635510173E+03,  7.915497121900064E+08,  4.881408675774596E+00,
2458678.500000000, A.D. 2019-Jul-14 00:00:00.0000, -1.116495650073791E+08, -7.827351185455076E+08,  5.767394140799999E+06, -4.517140004210949E+00, -1.498793292688406E-01, -4.908841126808245E-01,  2.637420984310148E+03,  7.906789196671188E+08,  7.826456397947107E-01,
2458679.500000000, A.D. 2019-Jul-15 00:00:00.0000, -1.104236717656907E+08, -7.836563400517073E+08,  5.715090653215230E+06,  2.900801744479203E+01,  4.801881288407617E+00,  1.716189750102908E-01,  2.639888099335767E+03,  7.914185421448176E+08, -8.800925583392397E+00,
2458680.500000000, A.D. 2019-Jul-16 00:00:00.0000, -1.097556830234435E+08, -7.830593907302421E+08,  5.710050827553749E+06,  1.843968735092177E-01, -1.315823943014077E+01, -8.993455527147569E-01,  2.637606115759648E+03,  7.907344206794175E+08,  1.299843382156096E+01,
2458681.500000000, A.D. 2019-Jul-17 00:00:00.0000, -1.079708925138184E+08, -7.836309756197569E+08,  5.678404082664669E+06,  1.948465846635862E+01,  1.472941576889720E+01,  3.949393083086745E-01,  2.638674295424891E+03,  7.910546528868461E+08, -1.724780928783762E+01,
2458682.500000000, A.D. 2019-Jul-18 00:00:00.0000, -1.076754915188824E+08, -7.835732147524395E+08,  5.648187839879155E+06,  1.301073398301004E+01, -1.855040103489018E+01, -9.129778832366986E-01,  2.638348392881305E+03,  7.909569497622359E+08,  1.659951724374183E+01,
2458683.500000000, A.D. 2019-Jul-19 00:00:00.0000, -1.057625135417898E+08, -7.834963081446222E+08,  5.641898986991346E+06,  5.775640786993249E+00,  1.463947034281982E+01,  1.925592547717505E-01,  2.637232931297225E+03,  7.906225427921401E+08, -1.527875844674759E+01,
2458684.500000000, A.D. 2019-Jul-20 00:00:00.0000, -1.053246071855534E+08, -7.840773401036382E+08,  5.590290262650967E+06,  2.567863853307786E+01, -1.278225779635129E+01, -5.217529360021000E-01,  2.638957506828015E+03,  7.911395575295222E+08,  9.245864850204089E+00,
2458685.500000000, A.D. 2019-Jul-21 00:00:00.0000, -1.037969494418787E+08, -7.834629948709438E+08,  5.597912430220604E+06, -3.563918447667421E+00,  4.577023632975302E+00, -3.107119665358791E-01,  2.636252679382753E+03,  7.903286706612413E+08, -4.071399960532768E+00,
2458686.500000000, A.D. 2019-Jul-22 00:00:00.0000, -1.027929601232628E+08, -7.843756057901103E+08,  5.542220476306260E+06,  3.005962430727633E+01,  3.611389562957791E-01,  1.917863863420677E-02,  2.638831860326561E+03,  7.911018896560122E+08, -4.263774492537197E+00,
2458687.500000000, A.D. 2019-Jul-23 00:00:00.0000, -1.019190254681174E+08, -7.836760559991308E+08,  5.543388815912664E+06, -2.547447149072906E+00, -9.193174875231373E+00, -8.000761616755225E-01,  2.636140768454332E+03,  7.902951206089331E+08,  9.439093107651205E+00,
2458688.500000000, A.D. 2019-Jul-24 00:00:00.0000, -1.002836224503587E+08, -7.844014963167694E+08,  5.503479893976629E+06,  2.352424069206308E+01,  1.248655500565744E+01,  3.656984974970774E-01,  2.637842075814917E+03,  7.908051597243762E+08, -1.536605539116687E+01,
2458689.500000000, A.D. 2019-Jul-25 00:00:00.0000, -9.991454774049734E+07, -7.841209775531459E+08,  5.481942839197040E+06,  8.334874940294691E+00, -1.783567771705295E+01, -9.601899850737903E-01,  2.636757555904291E+03,  7.904800288346200E+08,  1.663203319564565E+01,
2458690.500000000, A.D. 2019-Jul-26 00:00:00.0000, -9.798240083529650E+07, -7.842560938713762E+08,  5.467704454424679E+06,  1.027919265876644E+01,  1.606398684848043E+01,  3.036647520790101E-01,  2.636397567236328E+03,  7.903721069469990E+08, -1.721189182216366E+01,
2458691.500000000, A.D. 2019-Jul-27 00:00:00.0000, -9.764852729005231E+07, -7.846289628650311E+08,  5.421679811501861E+06,  2.209029156610128E+01, -1.569171323439830E+01, -6.853429976302232E-01,  2.637492880299998E+03,  7.907004735426359E+08,  1.283845510559465E+01,
2458692.500000000, A.D. 2019-Jul-28 00:00:00.0000, -9.594396091861542E+07, -7.841428730593745E+08,  5.426682001876116E+06, -1.414227517555382E+00,  8.880444407969934E+00, -1.286469951937077E-01,  2.635187465989179E+03,  7.900093277196873E+08, -8.643630510640715E+00,
2458693.500000000, A.D. 2019-Jul-29 00:00:00.0000, -9.515453804926597E+07, -7.849867294365500E+08,  5.369899554598391E+06,  2.984510941464532E+01, -4.192711812277067E+00, -1.556397798522515E-01,  2.637661931627641E+03,  7.907511538556784E+08,  5.696985220039332E-01,
2458694.500000000, A.D. 2019-Jul-30 00:00:00.0000, -9.405771943266678E+07, -7.842427540880913E+08,  5.375405587409735E+06, -4.145368334604567E+00, -4.633577281566486E+00, -6.627474221900906E-01,  2.634760366763388E+03,  7.898812865929779E+08,  5.089613885500636E+00,
2458695.500000000, A.D. 2019-Jul-31 00:00:00.0000, -9.261067509205166E+07, -7.850754229396489E+08,  5.328371929018736E+06,  2.678215466700464E+01,  9.253774098077811E+00,  2.891607832700087E-01,  2.636947169359498E+03,  7.905368735184262E+08, -1.232540012763844E+01,
2458696.500000000, A.D. 2019-Aug-01 00:00:00.0000, -9.211389180191629E+07, -7.845992861426896E+08,  5.315310020112932E+06,  3.987809518222716E+00, -1.587816894224110E+01, -9.573656404134701E-01,  2.635175904336022E+03,  7.900058616232686E+08,  1.529808733676085E+01,
2458697.500000000, A.D. 2019-Aug-02 00:00:00.0000, -9.022339097678053E+07, -7.849429503966428E+08,  5.292373345841348E+06,  1.496214263404713E+01,  1.624069606257249E+01,  3.719746207862977E-01,  2.635586371608264E+03,  7.901289166157427E+08, -1.784010963727276E+01,
2458698.500000000, A.D. 2019-Aug-03 00:00:00.0000, -8.993697117670380E+07, -7.850866726050856E+08,  5.253518083371580E+06,  1.781030751732973E+01, -1.752145377707235E+01, -8.195744954260311E-01,  2.635952862419791E+03,  7.902387877969650E+08,  1.537478198918838E+01,
2458699.500000000, A.D. 2019-Aug-04 00:00:00.0000, -8.809954773163424E+07, -7.847709295151274E+08,  5.253734888684571E+06,  1.773090491480104E+00,  1.245306120211934E+01,  4.185012007201383E-02,  2.634215752697474E+03,  7.897180154034960E+08, -1.257257504854277E+01,
